NORAD_CAT_ID,OBJECT_NAME,OBJECT_TYPE,EPOCH,MEAN_MOTION,ECCENTRICITY,INCLINATION,RA_OF_ASC_NODE,ARG_OF_PERICENTER,MEAN_ANOMALY,BSTAR,MEAN_MOTION_DOT,MEAN_MOTION_DDOT,TLE_LINE0,TLE_LINE1,TLE_LINE2,SEMIMAJOR_AXIS,PERIOD,APOGEE,PERIGEE,DECAYED
50837.0,STARLINK-3318,PAYLOAD,2022-03-31 22:00:00,15.289790599999998,0.0001771,53.2177,148.9377,34.9835,123.0952,-0.023834,-0.00633217,0.0,0 STARLINK-3318,1 50837U 22001AL  22090.91667824 -.00633217  00000-0 -23834-1 0  9999,2 50837  53.2177 148.9377 0001771  34.9835 123.0952 15.28979060  3627,6857.0,94.18,480.079,477.651,0.0
50837.0,STARLINK-3318,PAYLOAD,2022-04-01 14:00:01,15.28025652,0.0001751999999999,53.2175,145.856,44.9179,183.638,-0.02778,-0.00710374,0.0,0 STARLINK-3318,1 50837U 22001AL  22091.58334491 -.00710374  00000-0 -27780-1 0  9998,2 50837  53.2175 145.8560 0001752  44.9179 183.6380 15.28025652 14488,6859.852,94.239,482.919,480.515,0.0
50837.0,STARLINK-3318,PAYLOAD,2022-04-01 22:00:00,15.27519023,0.0001626,53.2176,144.3138,46.8748,216.0226,-0.028449,-0.00724098,0.0,0 STARLINK-3318,1 50837U 22001AL  22091.91667824 -.00724098  00000-0 -28449-1 0  9995,2 50837  53.2176 144.3138 0001626  46.8748 216.0226 15.27519023  3642,6861.369000000002,94.271,484.349,482.11800000000005,0.0
50837.0,STARLINK-3318,PAYLOAD,2022-04-02 14:00:01,15.26497364,0.0001547,53.2175,141.2386,45.7863,284.0189,-0.029216,-0.00721004,0.0,0 STARLINK-3318,1 50837U 22001AL  22092.58335648 -.00721004  00000-0 -29216-1 0  9992,2 50837  53.2175 141.2386 0001547  45.7863 284.0189 15.26497364 14647,6864.43,94.334,487.357,485.233,0.0
50837.0,STARLINK-3318,PAYLOAD,2022-04-02 22:00:01,15.25889648,0.0001783,53.2176,139.6992,28.6094,333.7541,-0.024087,-0.0058543,0.0,0 STARLINK-3318,1 50837U 22001AL  22092.91668981 -.00585430  00000-0 -24087-1 0  9990,2 50837  53.2176 139.6992 0001783  28.6094 333.7541 15.25889648  3629,6866.252,94.371,489.342,486.893,0.0
50837.0,STARLINK-3318,PAYLOAD,2022-04-03 14:00:01,15.24966987,0.000175,53.2174,136.6322,35.9338,29.4791,-0.030576,-0.00720464,0.0,0 STARLINK-3318,1 50837U 22001AL  22093.58334491 -.00720464  00000-0 -30576-1 0  9998,2 50837  53.2174 136.6322 0001750  35.9338  29.4791 15.24966987 14794,6869.022,94.428,492.089,489.684,0.0
50837.0,STARLINK-3318,PAYLOAD,2022-04-03 22:00:00,15.24457958,0.0001827,53.2175,135.0972,33.9432,62.1354,-0.031135,-0.00722359,0.0,0 STARLINK-3318,1 50837U 22001AL  22093.91667824 -.00722359  00000-0 -31135-1 0  9991,2 50837  53.2175 135.0972 0001827  33.9432  62.1354 15.24457958  3652,6870.551,94.46,493.671,491.16,0.0
50837.0,STARLINK-3318,PAYLOAD,2022-04-04 14:00:01,15.23436194,0.0001705,53.2173,132.0362,45.5758,109.9934,-0.031936,-0.0071884,0.0,0 STARLINK-3318,1 50837U 22001AL  22094.58334491 -.00718840  00000-0 -31936-1 0  9995,2 50837  53.2173 132.0362 0001705  45.5758 109.9934 15.23436194 14941,6873.621999999999,94.523,496.659,494.315,0.0
50837.0,STARLINK-3318,PAYLOAD,2022-04-04 22:00:00,15.22927703,0.0001689,53.2173,130.5049,46.4837,137.9125,-0.032542,-0.00721281,0.0,0 STARLINK-3318,1 50837U 22001AL  22094.91667824 -.00721281  00000-0 -32542-1 0  9998,2 50837  53.2173 130.5049 0001689  46.4837 137.9125 15.22927703  3665,6875.151999999999,94.555,498.17800000000005,495.856,0.0
50837.0,STARLINK-3318,PAYLOAD,2022-04-05 14:00:01,15.21907605,0.0001625,53.2172,127.4511,51.1464,189.1266,-0.033516,-0.00720739,0.0,0 STARLINK-3318,1 50837U 22001AL  22095.58335648 -.00720739  00000-0 -33516-1 0  9997,2 50837  53.2172 127.4511 0001625  51.1464 189.1266 15.21907605  3676,6878.224,94.618,501.207,498.971,0.0
50837.0,STARLINK-3318,PAYLOAD,2022-04-05 16:00:00,15.21748305,0.0001729,53.2168,127.0682,38.0535,298.9769,-0.031471,-0.00669177,0.0,0 STARLINK-3318,1 50837U 22001AL  22095.66667824 -.00669177  00000-0 -31471-1 0  9996,2 50837  53.2168 127.0682 0001729  38.0535 298.9769 15.21748305 15113,6878.704000000002,94.628,501.758,499.38,0.0
50837.0,STARLINK-3318,PAYLOAD,2022-04-05 22:00:00,15.21397302,0.0001693,53.2174,125.9233,43.9785,223.2205,-0.034005,-0.00720344,0.0,0 STARLINK-3318,1 50837U 22001AL  22095.91667824 -.00720344  00000-0 -34005-1 0  9994,2 50837  53.2174 125.9233 0001693  43.9785 223.2205 15.21397302  3661,6879.762,94.65,502.792,500.462,0.0
50837.0,STARLINK-3318,PAYLOAD,2022-04-06 06:00:02,15.2082763,0.0001719,53.2172,124.3981,48.4784,245.1901,-0.030392,-0.00631669,0.0,0 STARLINK-3318,1 50837U 22001AL  22096.25002315 -.00631669  00000-0 -30392-1 0  9996,2 50837  53.2172 124.3981 0001719  48.4784 245.1901 15.20827630 15200,6881.48,94.685,504.528,502.162,0.0
50837.0,STARLINK-3318,PAYLOAD,2022-04-06 14:00:01,15.20379502,0.000165,53.2172,122.8767,42.5373,276.7974,-0.035199,-0.00723412,0.0,0 STARLINK-3318,1 50837U 22001AL  22096.58334491 -.00723412  00000-0 -35199-1 0  9993,2 50837  53.2172 122.8767 0001650  42.5373 276.7974 15.20379502  3654,6882.831999999999,94.713,505.833,503.561,0.0
50837.0,STARLINK-3318,PAYLOAD,2022-04-06 22:00:00,15.1986668,0.0001692,53.2173,121.3526,38.3816,306.1051,-0.035518,-0.00719377,0.0,0 STARLINK-3318,1 50837U 22001AL  22096.91667824 -.00719377  00000-0 -35518-1 0  9999,2 50837  53.2173 121.3526 0001692  38.3816 306.1051 15.19866680 15308,6884.38,94.745,507.41,505.08,0.0
50837.0,STARLINK-3318,PAYLOAD,2022-04-07 14:00:01,15.18849169,0.0001583,53.2172,118.3131,42.0691,350.8765,-0.036767,-0.0072265,0.0,0 STARLINK-3318,1 50837U 22001AL  22097.58334491 -.00722650  00000-0 -36767-1 0  9999,2 50837  53.2172 118.3131 0001583  42.0691 350.8765 15.18849169  3652,6887.454000000002,94.809,510.41,508.229,0.0
50837.0,STARLINK-3318,PAYLOAD,2022-04-07 20:00:01,15.18466156,0.0001745,53.2175,117.1724,38.047,282.4408,-0.037166,-0.00722443,0.0,0 STARLINK-3318,1 50837U 22001AL  22097.83334491 -.00722443  00000-0 -37166-1 0  9991,2 50837  53.2175 117.1724 0001745  38.0470 282.4408 15.18466156 15445,6888.613,94.833,511.68,509.276,0.0
50837.0,STARLINK-3318,PAYLOAD,2022-04-07 22:00:00,15.18337357,0.0001806,53.2173,116.7925,34.1509,22.1081,-0.037206,-0.00720659,0.0,0 STARLINK-3318,1 50837U 22001AL  22097.91667824 -.00720659  00000-0 -37206-1 0  9991,2 50837  53.2173 116.7925 0001806  34.1509  22.1081 15.18337357  3666,6889.002,94.841,512.111,509.62300000000016,0.0
50837.0,STARLINK-3318,PAYLOAD,2022-04-08 14:00:03,15.17318248,0.0001682,53.2172,113.7601,41.9425,59.2256,-0.038347,-0.00721142,0.0,0 STARLINK-3318,1 50837U 22001AL  22098.58336806 -.00721142  00000-0 -38347-1 0  9993,2 50837  53.2172 113.7601 0001682  41.9425  59.2256 15.17318248  3659,6892.087,94.904,515.111,512.7919999999998,0.0
50837.0,STARLINK-3318,PAYLOAD,2022-04-08 22:00:00,15.16808895,0.0001898,53.2173,112.2433,36.3938,86.1218,-0.039031,-0.00723198,0.0,0 STARLINK-3318,1 50837U 22001AL  22098.91667824 -.00723198  00000-0 -39031-1 0  9991,2 50837  53.2173 112.2433 0001898  36.3938  86.1218 15.16808895 15609,6893.629,94.936,516.803,514.186,0.0
50837.0,STARLINK-3318,PAYLOAD,2022-04-09 14:00:01,15.15788502,0.0001736,53.2172,109.218,46.6246,116.9976,-0.040098,-0.00721643,0.0,0 STARLINK-3318,1 50837U 22001AL  22099.58334491 -.00721643  00000-0 -40098-1 0  9994,2 50837  53.2172 109.2180 0001736  46.6246 116.9976 15.15788502  3656,6896.723000000001,95.0,519.785,517.391,0.0
50837.0,STARLINK-3318,PAYLOAD,2022-04-09 22:00:00,15.15279841,0.0001947,53.2172,107.7047,38.3631,144.8944,-0.04087,-0.00724735,0.0,0 STARLINK-3318,1 50837U 22001AL  22099.91667824 -.00724735  00000-0 -40870-1 0  9993,2 50837  53.2172 107.7047 0001947  38.3631 144.8944 15.15279841  3657,6898.266,95.032,521.474,518.788,0.0
50837.0,STARLINK-3318,PAYLOAD,2022-04-10 06:00:02,15.14767261,0.0002139,53.2173,106.1957,35.5928,166.7497,-0.0412,-0.00720345,0.0,0 STARLINK-3318,1 50837U 22001AL  22100.25002315 -.00720345  00000-0 -41200-1 0  9992,2 50837  53.2173 106.1957 0002139  35.5928 166.7497 15.14767261 15806,6899.821999999999,95.064,523.163,520.211,0.0
50837.0,STARLINK-3318,PAYLOAD,2022-04-10 14:00:01,15.14259585,0.0001639,53.2172,104.6865,52.7963,167.8911,-0.042006,-0.00723631,0.0,0 STARLINK-3318,1 50837U 22001AL  22100.58334491 -.00723631  00000-0 -42006-1 0  9997,2 50837  53.2172 104.6865 0001639  52.7963 167.8911 15.14259585  3647,6901.364000000001,95.096,524.36,522.0980000000002,0.0
50837.0,STARLINK-3318,PAYLOAD,2022-04-10 22:00:00,15.13749238,0.0001756,53.2172,103.1767,46.1855,192.2993,-0.04262,-0.00723688,0.0,0 STARLINK-3318,1 50837U 22001AL  22100.91667824 -.00723688  00000-0 -42620-1 0  9997,2 50837  53.2172 103.1767 0001756  46.1855 192.2993 15.13749238  3649,6902.915,95.128,525.993,523.568,0.0
50837.0,STARLINK-3318,PAYLOAD,2022-04-11 04:00:01,15.13365921,0.0001951,53.2174,102.0476,39.2012,122.2913,-0.04297,-0.00721928,0.0,0 STARLINK-3318,1 50837U 22001AL  22101.16668981 -.00721928  00000-0 -42970-1 0  9993,2 50837  53.2174 102.0476 0001951  39.2012 122.2913 15.13365921 15945,6904.081,95.152,527.293,524.599,0.0
50837.0,STARLINK-3318,PAYLOAD,2022-04-11 14:00:01,15.12730503,0.0001583,53.2172,100.1656,52.9658,219.2718,-0.043963,-0.00725229,0.0,0 STARLINK-3318,1 50837U 22001AL  22101.58334491 -.00725229  00000-0 -43963-1 0  9996,2 50837  53.2172 100.1656 0001583  52.9658 219.2718 15.12730503  3646,6906.014,95.192,528.972,526.786,0.0
50837.0,STARLINK-3318,PAYLOAD,2022-04-11 22:00:00,15.12218066,0.0001726,53.2173,98.6594,44.6281,243.5692,-0.044348,-0.00721426,0.0,0 STARLINK-3318,1 50837U 22001AL  22101.91667824 -.00721426  00000-0 -44348-1 0  9995,2 50837  53.2173  98.6594 0001726  44.6281 243.5692 15.12218066  3633,6907.574000000001,95.224,530.631,528.247,0.0
50837.0,STARLINK-3318,PAYLOAD,2022-04-12 04:00:00,15.11835216,0.0002061,53.2174,97.5332,37.3554,172.4074,-0.044752,-0.00720353,0.0,0 STARLINK-3318,1 50837U 22001AL  22102.16667824 -.00720353  00000-0 -44752-1 0  9990,2 50837  53.2174  97.5332 0002061  37.3554 172.4074 15.11835216 16096,6908.74,95.248,532.029,529.181,0.0
